45434,ONEWEB-0018,2020,109.8,148.0,+,87.89,Active,1,LEO,Kazakhstan,UK,Commercial,Communications,Soyuz,1 45434U 20020L   24276.40737084  .00000610  00000+0  16850-2 0  9996,2 45434  87.8939 145.1143 0001667  79.9188 280.2128 13.11416980221009,13.1141698,0.0001667,LEO
45435,ONEWEB-0083,2020,109.8,148.0,+,87.89,Active,1,LEO,Kazakhstan,UK,Commercial,Communications,Soyuz,1 45435U 20020M   24276.16831433  .00000657  00000+0  18187-2 0  9999,2 45435  87.8944 145.1437 0001676  75.4387 284.6926 13.11417412221010,13.11417412,0.0001676,LEO
45436,ONEWEB-0095,2020,109.8,148.0,+,87.89,Active,1,LEO,Kazakhstan,UK,Commercial,Communications,Soyuz,1 45436U 20020N   24276.15997257  .00000437  00000+0  11971-2 0  9996,2 45436  87.8944 145.1776 0001700  47.6730 312.4542 13.11418304221013,13.11418304,0.00017,LEO
45437,ONEWEB-0092,2020,109.8,148.0,+,87.89,Active,1,LEO,Kazakhstan,UK,Commercial,Communications,Soyuz,1 45437U 20020P   24276.35564467 -.00000324  00000+0 -95097-3 0  9991,2 45437  87.8940 145.1221 0001463  68.0581 292.0702 13.11418988221156,13.11418988,0.0001463,LEO
45438,ONEWEB-0085,2020,109.8,148.0,+,87.89,Active,1,LEO,Kazakhstan,UK,Commercial,Communications,Soyuz,1 45438U 20020Q   24276.46670687  .00000414  00000+0  11317-2 0  9996,2 45438  87.8944 145.1088 0001638  80.6975 279.4338 13.11420137221055,13.11420137,0.0001638,LEO
45439,ONEWEB-0096,2020,109.8,148.0,+,87.89,Active,1,LEO,Kazakhstan,UK,Commercial,Communications,Soyuz,1 45439U 20020R   24276.39889837  .00000718  00000+0  19902-2 0  9993,2 45439  87.8942 145.0916 0001577  86.0740 274.0569 13.11417947221035,13.11417947,0.0001577,LEO
45440,ONEWEB-0037,2020,109.8,148.0,+,87.89,Active,1,LEO,Kazakhstan,UK,Commercial,Communications,Soyuz,1 45440U 20020S   24276.38023647  .00000105  00000+0  25981-3 0  9998,2 45440  87.8938 145.0729 0001505  74.5695 285.5599 13.11420827221060,13.11420827,0.0001505,LEO
45441,ONEWEB-0042,2020,109.8,148.0,+,87.89,Active,1,LEO,Kazakhstan,UK,Commercial,Communications,Soyuz,1 45441U 20020T   24276.15968592  .00000437  00000+0  11961-2 0  9991,2 45441  87.8943 145.1520 0001590  79.1047 281.0260 13.11420304221003,13.11420304,0.000159,LEO
